{
  "type": "FeatureCollection",
  "features": [
    {
      "type": "Feature",
      "properties": {
        "norad_id": 28890,
        "name": "BEIJING 1",
        "group": "dmc",
        "lat": 81.14533788418986,
        "lon": 53.9933824216187,
        "alt_km": 665.1240751102232,
        "timestamp": "2025-12-21T09:37:22.315029+00:00",
        "meta_object_name": "BEIJING 1",
        "meta_object_id": "2005-043A",
        "meta_epoch": "2025-12-21T04:18:17.502336",
        "meta_mean_motion": 14.63372356,
        "meta_eccentricity": 0.001574,
        "meta_inclination": 98.266,
        "meta_ra_of_asc_node": 122.7063,
        "meta_arg_of_pericenter": 116.4122,
        "meta_mean_anomaly": 243.8697,
        "meta_ephemeris_type": 0,
        "meta_classification_type": "U",
        "meta_norad_cat_id": 28890,
        "meta_element_set_no": 999,
        "meta_rev_at_epoch": 7461,
        "meta_bstar": 8.0107e-06,
        "meta_mean_motion_dot": -7e-08,
        "meta_mean_motion_ddot": 0,
        "tle_line1": "1 28890U 05043A   25355.17936924 -.00000007  00000+0  80107-5 0  9998",
        "tle_line2": "2 28890  98.2660 122.7063 0015740 116.4122 243.8697 14.63372356 74612"
      },
      "geometry": {
        "type": "Point",
        "coordinates": [
          53.9933824216187,
          81.14533788418986
        ]
      }
    },
    {
      "type": "Feature",
      "properties": {
        "norad_id": 33320,
        "name": "HUANJING 1A (HJ-1A)",
        "group": "dmc",
        "lat": 17.529470758864527,
        "lon": -19.096510738899646,
        "alt_km": 605.6217591313971,
        "timestamp": "2025-12-21T09:37:22.315053+00:00",
        "meta_object_name": "HUANJING 1A (HJ-1A)",
        "meta_object_id": "2008-041A",
        "meta_epoch": "2025-12-21T04:41:13.310880",
        "meta_mean_motion": 14.83419138,
        "meta_eccentricity": 0.0019525,
        "meta_inclination": 97.6537,
        "meta_ra_of_asc_node": 343.1408,
        "meta_arg_of_pericenter": 7.6994,
        "meta_mean_anomaly": 352.4516,
        "meta_ephemeris_type": 0,
        "meta_classification_type": "U",
        "meta_norad_cat_id": 33320,
        "meta_element_set_no": 999,
        "meta_rev_at_epoch": 93201,
        "meta_bstar": 0.0001827,
        "meta_mean_motion_dot": 1.453e-05,
        "meta_mean_motion_ddot": 0,
        "tle_line1": "1 33320U 08041A   25355.19529295  .00001453  00000+0  18270-3 0  9999",
        "tle_line2": "2 33320  97.6537 343.1408 0019525   7.6994 352.4516 14.83419138932013"
      },
      "geometry": {
        "type": "Point",
        "coordinates": [
          -19.096510738899646,
          17.529470758864527
        ]
      }
    },
    {
      "type": "Feature",
      "properties": {
        "norad_id": 33321,
        "name": "HUANJING 1B (HJ-1B)",
        "group": "dmc",
        "lat": -40.6560825943776,
        "lon": 160.39293536862345,
        "alt_km": 653.3207190019357,
        "timestamp": "2025-12-21T09:37:22.315068+00:00",
        "meta_object_name": "HUANJING 1B (HJ-1B)",
        "meta_object_id": "2008-041B",
        "meta_epoch": "2025-12-21T05:23:30.923808",
        "meta_mean_motion": 14.8284398,
        "meta_eccentricity": 0.0038013,
        "meta_inclination": 97.6396,
        "meta_ra_of_asc_node": 346.8437,
        "meta_arg_of_pericenter": 48.9835,
        "meta_mean_anomaly": 311.4656,
        "meta_ephemeris_type": 0,
        "meta_classification_type": "U",
        "meta_norad_cat_id": 33321,
        "meta_element_set_no": 999,
        "meta_rev_at_epoch": 93203,
        "meta_bstar": 0.00019046,
        "meta_mean_motion_dot": 1.509e-05,
        "meta_mean_motion_ddot": 0,
        "tle_line1": "1 33321U 08041B   25355.22466347  .00001509  00000+0  19046-3 0  9996",
        "tle_line2": "2 33321  97.6396 346.8437 0038013  48.9835 311.4656 14.82843980932031"
      },
      "geometry": {
        "type": "Point",
        "coordinates": [
          160.39293536862345,
          -40.6560825943776
        ]
      }
    },
    {
      "type": "Feature",
      "properties": {
        "norad_id": 33446,
        "name": "YAOGAN-4",
        "group": "dmc",
        "lat": 50.800625359175235,
        "lon": 115.24255899203172,
        "alt_km": 624.99566307245,
        "timestamp": "2025-12-21T09:37:22.315080+00:00",
        "meta_object_name": "YAOGAN-4",
        "meta_object_id": "2008-061A",
        "meta_epoch": "2025-12-20T07:07:49.061568",
        "meta_mean_motion": 14.82702731,
        "meta_eccentricity": 0.00131175,
        "meta_inclination": 97.9192,
        "meta_ra_of_asc_node": 284.3224,
        "meta_arg_of_pericenter": 296.7402,
        "meta_mean_anomaly": 63.2469,
        "meta_ephemeris_type": 0,
        "meta_classification_type": "U",
        "meta_norad_cat_id": 33446,
        "meta_element_set_no": 999,
        "meta_rev_at_epoch": 91915,
        "meta_bstar": 0.000123707,
        "meta_mean_motion_dot": 9.46e-06,
        "meta_mean_motion_ddot": 0,
        "tle_line1": "1 33446U 08061A   25354.29709562  .00000946  00000+0  12371-3 0  9999",
        "tle_line2": "2 33446  97.9192 284.3224 0013117 296.7402  63.2469 14.82702731919157"
      },
      "geometry": {
        "type": "Point",
        "coordinates": [
          115.24255899203172,
          50.800625359175235
        ]
      }
    },
    {
      "type": "Feature",
      "properties": {
        "norad_id": 35681,
        "name": "DEIMOS-1",
        "group": "dmc",
        "lat": 16.99652807556116,
        "lon": 153.22604173326556,
        "alt_km": 644.6264440051827,
        "timestamp": "2025-12-21T09:37:22.315091+00:00",
        "meta_object_name": "DEIMOS-1",
        "meta_object_id": "2009-041A",
        "meta_epoch": "2025-12-21T04:39:39.172896",
        "meta_mean_motion": 14.74963113,
        "meta_eccentricity": 0.0002586,
        "meta_inclination": 97.7146,
        "meta_ra_of_asc_node": 155.4037,
        "meta_arg_of_pericenter": 66.2933,
        "meta_mean_anomaly": 293.8548,
        "meta_ephemeris_type": 0,
        "meta_classification_type": "U",
        "meta_norad_cat_id": 35681,
        "meta_element_set_no": 999,
        "meta_rev_at_epoch": 88064,
        "meta_bstar": 3.3542e-05,
        "meta_mean_motion_dot": 1.78e-06,
        "meta_mean_motion_ddot": 0,
        "tle_line1": "1 35681U 09041A   25355.19420339  .00000178  00000+0  33542-4 0  9994",
        "tle_line2": "2 35681  97.7146 155.4037 0002586  66.2933 293.8548 14.74963113880648"
      },
      "geometry": {
        "type": "Point",
        "coordinates": [
          153.22604173326556,
          16.99652807556116
        ]
      }
    },
    {
      "type": "Feature",
      "properties": {
        "norad_id": 35683,
        "name": "UK-DMC 2",
        "group": "dmc",
        "lat": 52.58588756380814,
        "lon": 119.6596481370448,
        "alt_km": 637.3974227973195,
        "timestamp": "2025-12-21T09:37:22.315103+00:00",
        "meta_object_name": "UK-DMC 2",
        "meta_object_id": "2009-041C",
        "meta_epoch": "2025-12-21T04:29:59.885952",
        "meta_mean_motion": 14.75636244,
        "meta_eccentricity": 0.0001535,
        "meta_inclination": 97.8565,
        "meta_ra_of_asc_node": 129.8517,
        "meta_arg_of_pericenter": 93.3758,
        "meta_mean_anomaly": 266.7627,
        "meta_ephemeris_type": 0,
        "meta_classification_type": "U",
        "meta_norad_cat_id": 35683,
        "meta_element_set_no": 999,
        "meta_rev_at_epoch": 88031,
        "meta_bstar": 2.8485e-05,
        "meta_mean_motion_dot": 1.45e-06,
        "meta_mean_motion_ddot": 0,
        "tle_line1": "1 35683U 09041C   25355.18749868  .00000145  00000+0  28485-4 0  9990",
        "tle_line2": "2 35683  97.8565 129.8517 0001535  93.3758 266.7627 14.75636244880317"
      },
      "geometry": {
        "type": "Point",
        "coordinates": [
          119.6596481370448,
          52.58588756380814
        ]
      }
    },
    {
      "type": "Feature",
      "properties": {
        "norad_id": 40715,
        "name": "DMC3-FM1",
        "group": "dmc",
        "lat": 47.26612696755726,
        "lon": -146.10908012642872,
        "alt_km": 609.5389806449857,
        "timestamp": "2025-12-21T09:37:22.315114+00:00",
        "meta_object_name": "DMC3-FM1",
        "meta_object_id": "2015-032A",
        "meta_epoch": "2025-12-21T04:33:29.774880",
        "meta_mean_motion": 14.85453724,
        "meta_eccentricity": 0.0004143,
        "meta_inclination": 97.6689,
        "meta_ra_of_asc_node": 222.074,
        "meta_arg_of_pericenter": 286.5993,
        "meta_mean_anomaly": 73.4767,
        "meta_ephemeris_type": 0,
        "meta_classification_type": "U",
        "meta_norad_cat_id": 40715,
        "meta_element_set_no": 999,
        "meta_rev_at_epoch": 56348,
        "meta_bstar": 0.00010677,
        "meta_mean_motion_dot": 8.69e-06,
        "meta_mean_motion_ddot": 0,
        "tle_line1": "1 40715U 15032A   25355.18992795  .00000869  00000+0  10677-3 0  9994",
        "tle_line2": "2 40715  97.6689 222.0740 0004143 286.5993  73.4767 14.85453724563488"
      },
      "geometry": {
        "type": "Point",
        "coordinates": [
          -146.10908012642872,
          47.26612696755726
        ]
      }
    },
    {
      "type": "Feature",
      "properties": {
        "norad_id": 40716,
        "name": "DMC3-FM2",
        "group": "dmc",
        "lat": -70.79338741936817,
        "lon": -113.49898203781382,
        "alt_km": 616.1841131897254,
        "timestamp": "2025-12-21T09:37:22.315124+00:00",
        "meta_object_name": "DMC3-FM2",
        "meta_object_id": "2015-032B",
        "meta_epoch": "2025-12-21T05:05:52.363968",
        "meta_mean_motion": 14.85457783,
        "meta_eccentricity": 0.0004688,
        "meta_inclination": 97.6748,
        "meta_ra_of_asc_node": 223.5458,
        "meta_arg_of_pericenter": 293.7978,
        "meta_mean_anomaly": 66.2746,
        "meta_ephemeris_type": 0,
        "meta_classification_type": "U",
        "meta_norad_cat_id": 40716,
        "meta_element_set_no": 999,
        "meta_rev_at_epoch": 56348,
        "meta_bstar": 0.0001378,
        "meta_mean_motion_dot": 1.137e-05,
        "meta_mean_motion_ddot": 0,
        "tle_line1": "1 40716U 15032B   25355.21241162  .00001137  00000+0  13780-3 0  9991",
        "tle_line2": "2 40716  97.6748 223.5458 0004688 293.7978  66.2746 14.85457783563480"
      },
      "geometry": {
        "type": "Point",
        "coordinates": [
          -113.49898203781382,
          -70.79338741936817
        ]
      }
    },
    {
      "type": "Feature",
      "properties": {
        "norad_id": 40717,
        "name": "DMC3-FM3",
        "group": "dmc",
        "lat": 8.102085654356213,
        "lon": 46.46708376565315,
        "alt_km": 615.7034253193124,
        "timestamp": "2025-12-21T09:37:22.315134+00:00",
        "meta_object_name": "DMC3-FM3",
        "meta_object_id": "2015-032C",
        "meta_epoch": "2025-12-21T04:00:06.928704",
        "meta_mean_motion": 14.85440684,
        "meta_eccentricity": 0.0004099,
        "meta_inclination": 97.6803,
        "meta_ra_of_asc_node": 225.1404,
        "meta_arg_of_pericenter": 296.0021,
        "meta_mean_anomaly": 64.0772,
        "meta_ephemeris_type": 0,
        "meta_classification_type": "U",
        "meta_norad_cat_id": 40717,
        "meta_element_set_no": 999,
        "meta_rev_at_epoch": 56348,
        "meta_bstar": 1.2933e-05,
        "meta_mean_motion_dot": 6e-07,
        "meta_mean_motion_ddot": 0,
        "tle_line1": "1 40717U 15032C   25355.16674686  .00000060  00000+0  12933-4 0  9991",
        "tle_line2": "2 40717  97.6803 225.1404 0004099 296.0021  64.0772 14.85440684563480"
      },
      "geometry": {
        "type": "Point",
        "coordinates": [
          46.46708376565315,
          8.102085654356213
        ]
      }
    }
  ]
}